{
  "type": "FeatureCollection",
  "features": [
    {
      "type": "Feature",
      "properties": {
        "name": "Uluru base walk",
        "activity": "walk"
      },
      "geometry": {
        "type": "LineString",
        "coordinates": [
          [
            131.0215699179204,
            -25.34307653780838,
            0.0
          ],
          [
            131.0215257665469,
            -25.3432328679719,
            0.0
          ],
          [
            131.0215507397743,
            -25.34307014704126,
            0.0
          ],
          [
            131.0215420974068,
            -25.3431221754865,
            0.0
          ],
          [
            131.0218776563985,
            -25.34301502218008,
            0.0
          ],
          [
            131.0225367173436,
            -25.34293579962545,
            0.0
          ],
          [
            131.0229608232275,
            -25.34310665375845,
            0.0
          ],
          [
            131.0231351133808,
            -25.34290974483551,
            0.0
          ],
          [
            131.0236835453498,
            -25.34287917576319,
            0.0
          ],
          [
            131.024115295382,
            -25.34293173118714,
            0.0
          ],
          [
            131.0243968528039,
            -25.34289601308049,
            0.0
          ],
          [
            131.0245340744247,
            -25.34275013631753,
            0.0
          ],
          [
            131.0245752840673,
            -25.34253763053585,
            0.0
          ],
          [
            131.0246526120642,
            -25.34217920331733,
            0.0
          ],
          [
            131.0246080527683,
            -25.34187829316432,
            0.0
          ],
          [
            131.024537844124,
            -25.34155641594066,
            0.0
          ],
          [
            131.0246009841505,
            -25.34136831339833,
            0.0
          ],
          [
            131.0247694633198,
            -25.34127668225972,
            0.0
          ],
          [
            131.0249403784309,
            -25.34103533586187,
            0.0
          ],
          [
            131.0252368008639,
            -25.34091605194207,
            0.0
          ],
          [
            131.0254894662249,
            -25.34074789204035,
            0.0
          ],
          [
            131.025815861079,
            -25.34066020870086,
            0.0
          ],
          [
            131.0260227029964,
            -25.34060024844664,
            0.0
          ],
          [
            131.0266676591879,
            -25.34029486049386,
            0.0
          ],
          [
            131.0274777656757,
            -25.34006182853757,
            0.0
          ],
          [
            131.0283994904492,
            -25.34031561449554,
            0.0
          ],
          [
            131.0274043896207,
            -25.33995226938776,
            0.0
          ],
          [
            131.0266134864639,
            -25.34021611752392,
            0.0
          ],
          [
            131.0259219354534,
            -25.34054689316583,
            0.0
          ],
          [
            131.0253745001658,
            -25.34075858458054,
            0.0
          ],
          [
            131.0250186233606,
            -25.34094277611728,
            0.0
          ],
          [
            131.0249226890903,
            -25.34051614285421,
            0.0
          ],
          [
            131.0248754351568,
            -25.34017926202389,
            0.0
          ],
          [
            131.0247096200439,
            -25.33984371900445,
            0.0
          ],
          [
            131.0255132283841,
            -25.3391894579828,
            0.0
          ],
          [
            131.02629454175,
            -25.33846975542843,
            0.0
          ],
          [
            131.027328373396,
            -25.33754177430216,
            0.0
          ],
          [
            131.0281181551646,
            -25.33654911787381,
            0.0
          ],
          [
            131.0293253911186,
            -25.33580779026148,
            0.0
          ],
          [
            131.0299987476537,
            -25.3350200525214,
            0.0
          ],
          [
            131.0309618603672,
            -25.3342434774376,
            0.0
          ],
          [
            131.0314093512338,
            -25.33414431905143,
            0.0
          ],
          [
            131.0318640203661,
            -25.3342259434823,
            0.0
          ],
          [
            131.0325091754162,
            -25.3342585349016,
            0.0
          ],
          [
            131.0330587704379,
            -25.33417166141768,
            0.0
          ],
          [
            131.0335066361504,
            -25.33423960128766,
            0.0
          ],
          [
            131.0341963734664,
            -25.33458842613035,
            0.0
          ],
          [
            131.0345677933506,
            -25.33487090619561,
            0.0
          ],
          [
            131.0348079701671,
            -25.33496588831981,
            0.0
          ],
          [
            131.0349399849946,
            -25.33499424304608,
            0.0
          ],
          [
            131.0353498076553,
            -25.33486220403485,
            0.0
          ],
          [
            131.0359031476144,
            -25.33460356031084,
            0.0
          ],
          [
            131.0360242924779,
            -25.33458330853629,
            0.0
          ],
          [
            131.0362505781555,
            -25.33466717169057,
            0.0
          ],
          [
            131.0366240352246,
            -25.3349321780351,
            0.0
          ],
          [
            131.0367940328789,
            -25.335014476167,
            0.0
          ],
          [
            131.0371005290993,
            -25.33509731421509,
            0.0
          ],
          [
            131.0373919356859,
            -25.33510381674443,
            0.0
          ],
          [
            131.0377116801447,
            -25.335146791103,
            0.0
          ],
          [
            131.0378982366111,
            -25.33523437498782,
            0.0
          ],
          [
            131.0381628115615,
            -25.33523321052267,
            0.0
          ],
          [
            131.0385119365754,
            -25.33517457963999,
            0.0
          ],
          [
            131.0389522589984,
            -25.33520367615182,
            0.0
          ],
          [
            131.0394848522907,
            -25.33534380699311,
            0.0
          ],
          [
            131.0397405103722,
            -25.33544854383537,
            0.0
          ],
          [
            131.0401240951816,
            -25.33549555632456,
            0.0
          ],
          [
            131.0404750866655,
            -25.33560160242004,
            0.0
          ],
          [
            131.0409540841378,
            -25.33574837842001,
            0.0
          ],
          [
            131.0413036568728,
            -25.33571476760569,
            0.0
          ],
          [
            131.0417067373832,
            -25.33564992962542,
            0.0
          ],
          [
            131.042322617637,
            -25.3356435128646,
            0.0
          ],
          [
            131.0426970720539,
            -25.33570308016231,
            0.0
          ],
          [
            131.0429344587398,
            -25.33580145922534,
            0.0
          ],
          [
            131.0431410371935,
            -25.33582533801623,
            0.0
          ],
          [
            131.0438318123332,
            -25.33575584584111,
            0.0
          ],
          [
            131.0444012574735,
            -25.33574444561058,
            0.0
          ],
          [
            131.044570642002,
            -25.3357599214888,
            0.0
          ],
          [
            131.0448000233284,
            -25.33595201194892,
            0.0
          ],
          [
            131.0450974766212,
            -25.33600264006617,
            0.0
          ],
          [
            131.0454654941898,
            -25.33608115019241,
            0.0
          ],
          [
            131.0457583109229,
            -25.33621092806255,
            0.0
          ],
          [
            131.0460421778877,
            -25.33637789049024,
            0.0
          ],
          [
            131.0462067304342,
            -25.33641052539425,
            0.0
          ],
          [
            131.0465299555315,
            -25.33649352577486,
            0.0
          ],
          [
            131.046669516764,
            -25.33649167300786,
            0.0
          ],
          [
            131.0468527372236,
            -25.33643737482767,
            0.0
          ],
          [
            131.0470008682034,
            -25.33646185594109,
            0.0
          ],
          [
            131.0474267249723,
            -25.33670952111734,
            0.0
          ],
          [
            131.0476805212822,
            -25.33678125672679,
            0.0
          ],
          [
            131.047842959854,
            -25.33682387641327,
            0.0
          ],
          [
            131.0481015012889,
            -25.33698009694215,
            0.0
          ],
          [
            131.0482760359914,
            -25.3370342984302,
            0.0
          ],
          [
            131.0485481690526,
            -25.33703441861338,
            0.0
          ],
          [
            131.0490967820675,
            -25.33712100981503,
            0.0
          ],
          [
            131.0493602403704,
            -25.33714375525035,
            0.0
          ],
          [
            131.0498016027467,
            -25.33729295530675,
            0.0
          ],
          [
            131.0503431778876,
            -25.33746288142365,
            0.0
          ],
          [
            131.0508804076442,
            -25.3376522000364,
            0.0
          ],
          [
            131.0521166249586,
            -25.33805288251118,
            0.0
          ],
          [
            131.0523972961416,
            -25.33815252078301,
            0.0
          ],
          [
            131.0527150571855,
            -25.33824341963786,
            0.0
          ],
          [
            131.0528747667575,
            -25.33834283607254,
            0.0
          ],
          [
            131.0530391023028,
            -25.33853774727599,
            0.0
          ],
          [
            131.0534871991439,
            -25.33939607689146,
            0.0
          ],
          [
            131.0535670943877,
            -25.33961425079468,
            0.0
          ],
          [
            131.0535676222451,
            -25.33979926745411,
            0.0
          ],
          [
            131.0535465393834,
            -25.33991982016887,
            0.0
          ],
          [
            131.0535596452181,
            -25.34003721086111,
            0.0
          ],
          [
            131.0537106131453,
            -25.3403108892322,
            0.0
          ],
          [
            131.053662754311,
            -25.34066485772105,
            0.0
          ],
          [
            131.0537099223884,
            -25.34098197209767,
            0.0
          ],
          [
            131.0539691878397,
            -25.34147744055506,
            0.0
          ],
          [
            131.0540451868822,
            -25.3419101305995,
            0.0
          ],
          [
            131.0541056292658,
            -25.34230637146004,
            0.0
          ],
          [
            131.0541840628819,
            -25.34261723869269,
            0.0
          ],
          [
            131.0544490215024,
            -25.34280642649257,
            0.0
          ],
          [
            131.0546740755025,
            -25.34306598781749,
            0.0
          ],
          [
            131.0547278875853,
            -25.34333151893803,
            0.0
          ],
          [
            131.0548934161416,
            -25.34363138139419,
            0.0
          ],
          [
            131.0550363698809,
            -25.34390171339356,
            0.0
          ],
          [
            131.0551297047165,
            -25.3442251148001,
            0.0
          ],
          [
            131.0551542319168,
            -25.34443035138906,
            0.0
          ],
          [
            131.0550882853398,
            -25.34454302574806,
            0.0
          ],
          [
            131.0550085332762,
            -25.34461583448637,
            0.0
          ],
          [
            131.0549071664497,
            -25.34460956147624,
            0.0
          ],
          [
            131.0547891525768,
            -25.34465503274584,
            0.0
          ],
          [
            131.0546392960927,
            -25.3448565749354,
            0.0
          ],
          [
            131.0544706024169,
            -25.34511710244175,
            0.0
          ],
          [
            131.0544011298533,
            -25.34523392769088,
            0.0
          ],
          [
            131.0543892722793,
            -25.34530439339957,
            0.0
          ],
          [
            131.0543230910767,
            -25.34547492860534,
            0.0
          ],
          [
            131.0541520752563,
            -25.34571243992771,
            0.0
          ],
          [
            131.0539901375483,
            -25.34600223651878,
            0.0
          ],
          [
            131.0537266080606,
            -25.34644001541482,
            0.0
          ],
          [
            131.0536208179166,
            -25.34669668727574,
            0.0
          ],
          [
            131.0533913904298,
            -25.34718420512949,
            0.0
          ],
          [
            131.0532297620663,
            -25.34753336713739,
            0.0
          ],
          [
            131.0531144715522,
            -25.34785694428511,
            0.0
          ],
          [
            131.0530528776449,
            -25.34814535161086,
            0.0
          ],
          [
            131.053028285282,
            -25.34820789701115,
            0.0
          ],
          [
            131.0528550314625,
            -25.34836334315977,
            0.0
          ],
          [
            131.0527050425621,
            -25.34849340484508,
            0.0
          ],
          [
            131.0525988989169,
            -25.34886789324734,
            0.0
          ],
          [
            131.0525148167197,
            -25.34910581110974,
            0.0
          ],
          [
            131.0523849990871,
            -25.34937167408648,
            0.0
          ],
          [
            131.0525220074154,
            -25.3494236543444,
            0.0
          ],
          [
            131.0526981386954,
            -25.34951020046008,
            0.0
          ],
          [
            131.0527199669751,
            -25.34956850388344,
            0.0
          ],
          [
            131.0526883105225,
            -25.34953162810147,
            0.0
          ],
          [
            131.0526049322358,
            -25.34947488460262,
            0.0
          ],
          [
            131.0525003530778,
            -25.34944372688853,
            0.0
          ],
          [
            131.0523705322675,
            -25.34939718775528,
            0.0
          ],
          [
            131.0521650640789,
            -25.34953598237712,
            0.0
          ],
          [
            131.051903841735,
            -25.34971460422071,
            0.0
          ],
          [
            131.0517056167575,
            -25.34981989850709,
            0.0
          ],
          [
            131.0514707971864,
            -25.3498662089606,
            0.0
          ],
          [
            131.0512240913903,
            -25.34996603510246,
            0.0
          ],
          [
            131.0509703802968,
            -25.35007375294675,
            0.0
          ],
          [
            131.0507269764911,
            -25.35010752535894,
            0.0
          ],
          [
            131.0505615045213,
            -25.35010612350859,
            0.0
          ],
          [
            131.0503973166193,
            -25.35007163793911,
            0.0
          ],
          [
            131.050281516471,
            -25.35002762646829,
            0.0
          ],
          [
            131.0501443995442,
            -25.34994074975278,
            0.0
          ],
          [
            131.0500059655894,
            -25.34979343682175,
            0.0
          ],
          [
            131.0498767142057,
            -25.34966685387899,
            0.0
          ],
          [
            131.0497400090486,
            -25.34958341474175,
            0.0
          ],
          [
            131.0495955258759,
            -25.34954292755858,
            0.0
          ],
          [
            131.0494791370182,
            -25.34950597660975,
            0.0
          ],
          [
            131.0493780330252,
            -25.34953250025526,
            0.0
          ],
          [
            131.0492507187975,
            -25.34957311336885,
            0.0
          ],
          [
            131.049128024886,
            -25.34962148374255,
            0.0
          ],
          [
            131.0489117709573,
            -25.34970562189569,
            0.0
          ],
          [
            131.0487212817956,
            -25.34979502078853,
            0.0
          ],
          [
            131.048627524845,
            -25.34989062141215,
            0.0
          ],
          [
            131.0485663177896,
            -25.34999135454693,
            0.0
          ],
          [
            131.0485034526544,
            -25.35010075918782,
            0.0
          ],
          [
            131.0484334835039,
            -25.35019316387523,
            0.0
          ],
          [
            131.0482590538396,
            -25.35030216683478,
            0.0
          ],
          [
            131.0481344117476,
            -25.35043997747178,
            0.0
          ],
          [
            131.0480298239559,
            -25.35053611145671,
            0.0
          ],
          [
            131.0479164191016,
            -25.35059419553212,
            0.0
          ],
          [
            131.0478138393291,
            -25.35067187297555,
            0.0
          ],
          [
            131.0477139073438,
            -25.35073711150617,
            0.0
          ],
          [
            131.0476043978196,
            -25.35073784472232,
            0.0
          ],
          [
            131.0474442911469,
            -25.35071622532448,
            0.0
          ],
          [
            131.0472985083803,
            -25.35072864388822,
            0.0
          ],
          [
            131.0471192444821,
            -25.35074795137225,
            0.0
          ],
          [
            131.0469612918782,
            -25.35075160713382,
            0.0
          ],
          [
            131.0466030529495,
            -25.35071719478635,
            0.0
          ],
          [
            131.0462758732404,
            -25.35068229986607,
            0.0
          ],
          [
            131.0459979626429,
            -25.35070243097615,
            0.0
          ],
          [
            131.045774321198,
            -25.35072184427291,
            0.0
          ],
          [
            131.0455943802128,
            -25.35064792019948,
            0.0
          ],
          [
            131.0452915528502,
            -25.3506235369968,
            0.0
          ],
          [
            131.0449845347168,
            -25.35072380739127,
            0.0
          ],
          [
            131.0448181154671,
            -25.3508029677221,
            0.0
          ],
          [
            131.0447069028046,
            -25.35082927567698,
            0.0
          ],
          [
            131.0446400857633,
            -25.35087586715559,
            0.0
          ],
          [
            131.0445154039167,
            -25.35086963287483,
            0.0
          ],
          [
            131.0443430316659,
            -25.35088472484789,
            0.0
          ],
          [
            131.0442027274967,
            -25.35097191826219,
            0.0
          ],
          [
            131.043989995763,
            -25.3511148868721,
            0.0
          ],
          [
            131.0437364431536,
            -25.35115135323317,
            0.0
          ],
          [
            131.043559448233,
            -25.35114667337233,
            0.0
          ],
          [
            131.0433831856845,
            -25.35120235687901,
            0.0
          ],
          [
            131.043228935238,
            -25.35122116400785,
            0.0
          ],
          [
            131.0430726609244,
            -25.35118062178782,
            0.0
          ],
          [
            131.042928451489,
            -25.35115833839633,
            0.0
          ],
          [
            131.0424565861121,
            -25.35124093547457,
            0.0
          ],
          [
            131.0422314476325,
            -25.3512807541789,
            0.0
          ],
          [
            131.042082609306,
            -25.35128994769747,
            0.0
          ],
          [
            131.0419128852832,
            -25.35128791058446,
            0.0
          ],
          [
            131.0417311742637,
            -25.35135997924122,
            0.0
          ],
          [
            131.0414876486537,
            -25.35148123573316,
            0.0
          ],
          [
            131.0412868982288,
            -25.35151770783817,
            0.0
          ],
          [
            131.0411633907508,
            -25.35153214240699,
            0.0
          ],
          [
            131.0410987829734,
            -25.35155570219706,
            0.0
          ],
          [
            131.041009846212,
            -25.35154176070874,
            0.0
          ],
          [
            131.0407786216111,
            -25.35147219593692,
            0.0
          ],
          [
            131.0406371345938,
            -25.3514307021716,
            0.0
          ],
          [
            131.0403809575323,
            -25.35148590927187,
            0.0
          ],
          [
            131.0401981434215,
            -25.35148746437811,
            0.0
          ],
          [
            131.039996548645,
            -25.35144622974211,
            0.0
          ],
          [
            131.0398483313868,
            -25.35145926686977,
            0.0
          ],
          [
            131.0396058647659,
            -25.35146406848822,
            0.0
          ],
          [
            131.0394148884643,
            -25.35161575735053,
            0.0
          ],
          [
            131.0392197482236,
            -25.35176980610158,
            0.0
          ],
          [
            131.0390084251593,
            -25.35187942236098,
            0.0
          ],
          [
            131.0387718055691,
            -25.35196478670536,
            0.0
          ],
          [
            131.0385431688455,
            -25.35199719449407,
            0.0
          ],
          [
            131.0383797361624,
            -25.35199798165401,
            0.0
          ],
          [
            131.0381103858074,
            -25.35203980551228,
            0.0
          ],
          [
            131.0378855772874,
            -25.35207020761628,
            0.0
          ],
          [
            131.0377481133294,
            -25.35207341797162,
            0.0
          ],
          [
            131.03747569761,
            -25.35204833131524,
            0.0
          ],
          [
            131.0372841665918,
            -25.35207107316857,
            0.0
          ],
          [
            131.0370834480336,
            -25.35203574066306,
            0.0
          ],
          [
            131.0368288067695,
            -25.35209012784741,
            0.0
          ],
          [
            131.0366713475317,
            -25.35213156321449,
            0.0
          ],
          [
            131.0365180946312,
            -25.35219151925887,
            0.0
          ],
          [
            131.0363067849428,
            -25.35221663800647,
            0.0
          ],
          [
            131.0361291758101,
            -25.35221197417069,
            0.0
          ],
          [
            131.0358843177513,
            -25.35219175900805,
            0.0
          ],
          [
            131.0356704188016,
            -25.35219458806192,
            0.0
          ],
          [
            131.0354941999213,
            -25.35224238045138,
            0.0
          ],
          [
            131.0352811934924,
            -25.35223739494935,
            0.0
          ],
          [
            131.0350983157855,
            -25.35222003116163,
            0.0
          ],
          [
            131.0349050103155,
            -25.35232220066781,
            0.0
          ],
          [
            131.0345543590973,
            -25.35250688253169,
            0.0
          ],
          [
            131.0343060476473,
            -25.35270021851598,
            0.0
          ],
          [
            131.0339979609941,
            -25.35282583538054,
            0.0
          ],
          [
            131.03364988875,
            -25.35286426680559,
            0.0
          ],
          [
            131.0335411299377,
            -25.35273314783998,
            0.0
          ],
          [
            131.0334134977681,
            -25.35262450338401,
            0.0
          ],
          [
            131.0333730968568,
            -25.35252871954916,
            0.0
          ],
          [
            131.0333599129965,
            -25.35233034475114,
            0.0
          ],
          [
            131.0332313414088,
            -25.35214006559627,
            0.0
          ],
          [
            131.0331337570653,
            -25.35207495256995,
            0.0
          ],
          [
            131.0329500760459,
            -25.35164440940433,
            0.0
          ],
          [
            131.0328557494153,
            -25.35139453526574,
            0.0
          ],
          [
            131.0326944549476,
            -25.3511583969243,
            0.0
          ],
          [
            131.0328332994447,
            -25.35129358729732,
            0.0
          ],
          [
            131.032968472885,
            -25.35164604678358,
            0.0
          ],
          [
            131.0331370191043,
            -25.35203179830654,
            0.0
          ],
          [
            131.0333110815062,
            -25.35220099809246,
            0.0
          ],
          [
            131.0333861172176,
            -25.35244563404882,
            0.0
          ],
          [
            131.0334516141571,
            -25.35263772537098,
            0.0
          ],
          [
            131.0336149028216,
            -25.35286850899828,
            0.0
          ],
          [
            131.0335255434919,
            -25.35317191199618,
            0.0
          ],
          [
            131.0333637261824,
            -25.35354001484594,
            0.0
          ],
          [
            131.0330801381592,
            -25.35363891554458,
            0.0
          ],
          [
            131.0327558774565,
            -25.35379920434648,
            0.0
          ],
          [
            131.0324506714279,
            -25.35389480624325,
            0.0
          ],
          [
            131.0321971535178,
            -25.35387182859898,
            0.0
          ],
          [
            131.0320406542932,
            -25.35379321835709,
            0.0
          ],
          [
            131.0319468657267,
            -25.35383856965225,
            0.0
          ],
          [
            131.0319129353677,
            -25.35390347446429,
            0.0
          ],
          [
            131.0318675113778,
            -25.35408925362939,
            0.0
          ],
          [
            131.0317609787788,
            -25.35423652209748,
            0.0
          ],
          [
            131.0316236783933,
            -25.3543561020188,
            0.0
          ],
          [
            131.0313819220168,
            -25.35449767822252,
            0.0
          ],
          [
            131.0309951438641,
            -25.35463188062427,
            0.0
          ],
          [
            131.0305363177514,
            -25.354732373669,
            0.0
          ],
          [
            131.0299931557265,
            -25.35488642094537,
            0.0
          ],
          [
            131.0295895350653,
            -25.35479258836477,
            0.0
          ],
          [
            131.0287623126729,
            -25.35439561330368,
            0.0
          ],
          [
            131.0287722303147,
            -25.35399287488748,
            0.0
          ],
          [
            131.0286240752161,
            -25.35368513372078,
            0.0
          ],
          [
            131.0283413158748,
            -25.35343889816345,
            0.0
          ],
          [
            131.0278940951524,
            -25.35313730516945,
            0.0
          ],
          [
            131.0274359971707,
            -25.35279847061991,
            0.0
          ],
          [
            131.0267384071039,
            -25.35227128113764,
            0.0
          ],
          [
            131.0254337966225,
            -25.35114681649447,
            0.0
          ],
          [
            131.0242751503351,
            -25.35039449452704,
            0.0
          ],
          [
            131.0234212951539,
            -25.34941073178116,
            0.0
          ],
          [
            131.022654787414,
            -25.34826925689326,
            0.0
          ],
          [
            131.0224050613859,
            -25.34768791398143,
            0.0
          ],
          [
            131.0224196667459,
            -25.34709359348945,
            0.0
          ],
          [
            131.0222583184884,
            -25.34632425939345,
            0.0
          ],
          [
            131.0220899882289,
            -25.34570390630295,
            0.0
          ],
          [
            131.0220440100157,
            -25.34493364515316,
            0.0
          ],
          [
            131.0221536937445,
            -25.34440421698542,
            0.0
          ],
          [
            131.0220781570744,
            -25.34404692645205,
            0.0
          ],
          [
            131.0218289905976,
            -25.34381643979027,
            0.0
          ],
          [
            131.0216745259659,
            -25.34364183944528,
            0.0
          ],
          [
            131.0215812670682,
            -25.34349823990518,
            0.0
          ],
          [
            131.0215316537122,
            -25.34328179733648,
            0.0
          ],
          [
            131.0215237294183,
            -25.34318482670882,
            0.0
          ]
        ]
      }
    }
  ]
}